[{"OBJECT_NAME":"TEVEL2-2","OBJECT_ID":"2025-052K","EPOCH":"2026-03-09T15:33:48.895776","MEAN_MOTION":15.30343745,"ECCENTRICITY":0.0004693,"INCLINATION":97.3987,"RA_OF_ASC_NODE":324.77,"ARG_OF_PERICENTER":105.793,"MEAN_ANOMALY":254.3828,"EPHEMERIS_TYPE":0,"CLASSIFICATION_TYPE":"U","NORAD_CAT_ID":63219,"ELEMENT_SET_NO":999,"REV_AT_EPOCH":5485,"BSTAR":0.00069428,"MEAN_MOTION_DOT":0.00020339,"MEAN_MOTION_DDOT":0},{"OBJECT_NAME":"STARLINK-34557","OBJECT_ID":"2025-144C","EPOCH":"2026-03-09T15:09:26.954208","MEAN_MOTION":15.30196866,"ECCENTRICITY":0.0001265,"INCLINATION":53.16,"RA_OF_ASC_NODE":181.2678,"ARG_OF_PERICENTER":65.2242,"MEAN_ANOMALY":294.8891,"EPHEMERIS_TYPE":0,"CLASSIFICATION_TYPE":"U","NORAD_CAT_ID":64726,"ELEMENT_SET_NO":999,"REV_AT_EPOCH":3970,"BSTAR":0.0014798,"MEAN_MOTION_DOT":0.00043723,"MEAN_MOTION_DDOT":0}]
